{
  "type": "FeatureCollection",
  "features": [
    {
      "type": "Feature",
      "properties": {
        "norad_id": 37470,
        "name": "FENGYUN 1C DEB",
        "group": "fengyun-1c-debris",
        "lat": 18.016177591936106,
        "lon": -34.06766986950998,
        "alt_km": 560.0437115624527,
        "timestamp": "2025-12-24T07:45:06.489139+00:00",
        "meta_object_name": "FENGYUN 1C DEB",
        "meta_object_id": "1999-025EJQ",
        "meta_epoch": "2025-12-23T15:03:15.129216",
        "meta_mean_motion": 15.02695521,
        "meta_eccentricity": 0.00019924,
        "meta_inclination": 98.6693,
        "meta_ra_of_asc_node": 142.3103,
        "meta_arg_of_pericenter": 331.4273,
        "meta_mean_anomaly": 28.6839,
        "meta_ephemeris_type": 0,
        "meta_classification_type": "U",
        "meta_norad_cat_id": 37470,
        "meta_element_set_no": 999,
        "meta_rev_at_epoch": 65625,
        "meta_bstar": 0.0055135602,
        "meta_mean_motion_dot": 0.00074266,
        "meta_mean_motion_ddot": 0,
        "tle_line1": "1 37470U 99025EJQ 25357.62725844  .00074266  00000+0  55136-2 0  9992",
        "tle_line2": "2 37470  98.6693 142.3103 0001992 331.4273  28.6839 15.02695521656258"
      },
      "geometry": {
        "type": "Point",
        "coordinates": [
          -34.06766986950998,
          18.016177591936106
        ]
      }
    },
    {
      "type": "Feature",
      "properties": {
        "norad_id": 37474,
        "name": "FENGYUN 1C DEB",
        "group": "fengyun-1c-debris",
        "lat": 69.6080400206011,
        "lon": 179.26649678779657,
        "alt_km": 554.7108736614282,
        "timestamp": "2025-12-24T07:45:06.489149+00:00",
        "meta_object_name": "FENGYUN 1C DEB",
        "meta_object_id": "1999-025EJU",
        "meta_epoch": "2025-12-23T20:02:15.241632",
        "meta_mean_motion": 14.75314914,
        "meta_eccentricity": 0.01319864,
        "meta_inclination": 99.1652,
        "meta_ra_of_asc_node": 204.4555,
        "meta_arg_of_pericenter": 100.5589,
        "meta_mean_anomaly": 261.0516,
        "meta_ephemeris_type": 0,
        "meta_classification_type": "U",
        "meta_norad_cat_id": 37474,
        "meta_element_set_no": 999,
        "meta_rev_at_epoch": 62539,
        "meta_bstar": 0.0011602634,
        "meta_mean_motion_dot": 8.999e-05,
        "meta_mean_motion_ddot": 0,
        "tle_line1": "1 37474U 99025EJU 25357.83489863  .00008999  00000+0  11603-2 0  9998",
        "tle_line2": "2 37474  99.1652 204.4555 0131986 100.5589 261.0516 14.75314914625395"
      },
      "geometry": {
        "type": "Point",
        "coordinates": [
          179.26649678779657,
          69.6080400206011
        ]
      }
    },
    {
      "type": "Feature",
      "properties": {
        "norad_id": 37477,
        "name": "FENGYUN 1C DEB",
        "group": "fengyun-1c-debris",
        "lat": 37.694333704316755,
        "lon": -170.61333892126655,
        "alt_km": 813.6054177311253,
        "timestamp": "2025-12-24T07:45:06.489159+00:00",
        "meta_object_name": "FENGYUN 1C DEB",
        "meta_object_id": "1999-025EJX",
        "meta_epoch": "2025-12-16T18:06:36.022176",
        "meta_mean_motion": 14.19731482,
        "meta_eccentricity": 0.00371355,
        "meta_inclination": 98.6057,
        "meta_ra_of_asc_node": 355.3103,
        "meta_arg_of_pericenter": 94.8392,
        "meta_mean_anomaly": 265.7026,
        "meta_ephemeris_type": 0,
        "meta_classification_type": "U",
        "meta_norad_cat_id": 37477,
        "meta_element_set_no": 999,
        "meta_rev_at_epoch": 81971,
        "meta_bstar": 0.00055952668,
        "meta_mean_motion_dot": 1.15e-05,
        "meta_mean_motion_ddot": 0,
        "tle_line1": "1 37477U 99025EJX 25350.75458359  .00001150  00000+0  55953-3 0  9990",
        "tle_line2": "2 37477  98.6057 355.3103 0037135  94.8392 265.7026 14.19731482819713"
      },
      "geometry": {
        "type": "Point",
        "coordinates": [
          -170.61333892126655,
          37.694333704316755
        ]
      }
    },
    {
      "type": "Feature",
      "properties": {
        "norad_id": 37478,
        "name": "FENGYUN 1C DEB",
        "group": "fengyun-1c-debris",
        "lat": 77.18938981347162,
        "lon": -68.859579260812,
        "alt_km": 1594.684027723889,
        "timestamp": "2025-12-24T07:45:06.489169+00:00",
        "meta_object_name": "FENGYUN 1C DEB",
        "meta_object_id": "1999-025EJY",
        "meta_epoch": "2025-12-23T05:31:28.594848",
        "meta_mean_motion": 13.03020761,
        "meta_eccentricity": 0.05479168,
        "meta_inclination": 99.6522,
        "meta_ra_of_asc_node": 338.6097,
        "meta_arg_of_pericenter": 295.1195,
        "meta_mean_anomaly": 59.4029,
        "meta_ephemeris_type": 0,
        "meta_classification_type": "U",
        "meta_norad_cat_id": 37478,
        "meta_element_set_no": 999,
        "meta_rev_at_epoch": 56698,
        "meta_bstar": 0.0032489988,
        "meta_mean_motion_dot": 2.046e-05,
        "meta_mean_motion_ddot": 0,
        "tle_line1": "1 37478U 99025EJY 25357.23019207  .00002046  00000+0  32490-2 0  9991",
        "tle_line2": "2 37478  99.6522 338.6097 0547916 295.1195  59.4029 13.03020761566980"
      },
      "geometry": {
        "type": "Point",
        "coordinates": [
          -68.859579260812,
          77.18938981347162
        ]
      }
    },
    {
      "type": "Feature",
      "properties": {
        "norad_id": 37589,
        "name": "FENGYUN 1C DEB",
        "group": "fengyun-1c-debris",
        "lat": 67.24552664956461,
        "lon": -121.40729748755439,
        "alt_km": 939.61620426838,
        "timestamp": "2025-12-24T07:45:06.489179+00:00",
        "meta_object_name": "FENGYUN 1C DEB",
        "meta_object_id": "1999-025EKH",
        "meta_epoch": "2025-12-22T12:47:20.483808",
        "meta_mean_motion": 14.08264276,
        "meta_eccentricity": 0.01172304,
        "meta_inclination": 99.0749,
        "meta_ra_of_asc_node": 259.1917,
        "meta_arg_of_pericenter": 236.7185,
        "meta_mean_anomaly": 122.271,
        "meta_ephemeris_type": 0,
        "meta_classification_type": "U",
        "meta_norad_cat_id": 37589,
        "meta_element_set_no": 999,
        "meta_rev_at_epoch": 82722,
        "meta_bstar": 0.0028934456,
        "meta_mean_motion_dot": 5.223e-05,
        "meta_mean_motion_ddot": 0,
        "tle_line1": "1 37589U 99025EKH 25356.53287597  .00005223  00000+0  28934-2 0  9993",
        "tle_line2": "2 37589  99.0749 259.1917 0117230 236.7185 122.2710 14.08264276827228"
      },
      "geometry": {
        "type": "Point",
        "coordinates": [
          -121.40729748755439,
          67.24552664956461
        ]
      }
    },
    {
      "type": "Feature",
      "properties": {
        "norad_id": 37594,
        "name": "FENGYUN 1C DEB",
        "group": "fengyun-1c-debris",
        "lat": 27.780932635607886,
        "lon": 22.697364947233403,
        "alt_km": 908.420083870079,
        "timestamp": "2025-12-24T07:45:06.489189+00:00",
        "meta_object_name": "FENGYUN 1C DEB",
        "meta_object_id": "1999-025EKN",
        "meta_epoch": "2025-12-23T12:53:53.738592",
        "meta_mean_motion": 14.11128547,
        "meta_eccentricity": 0.00852864,
        "meta_inclination": 98.7335,
        "meta_ra_of_asc_node": 26.5783,
        "meta_arg_of_pericenter": 238.8668,
        "meta_mean_anomaly": 120.4117,
        "meta_ephemeris_type": 0,
        "meta_classification_type": "U",
        "meta_norad_cat_id": 37594,
        "meta_element_set_no": 999,
        "meta_rev_at_epoch": 77914,
        "meta_bstar": 0.00023559331,
        "meta_mean_motion_dot": 3.96e-06,
        "meta_mean_motion_ddot": 0,
        "tle_line1": "1 37594U 99025EKN 25357.53742753  .00000396  00000+0  23559-3 0  9995",
        "tle_line2": "2 37594  98.7335  26.5783 0085286 238.8668 120.4117 14.11128547779144"
      },
      "geometry": {
        "type": "Point",
        "coordinates": [
          22.697364947233403,
          27.780932635607886
        ]
      }
    },
    {
      "type": "Feature",
      "properties": {
        "norad_id": 37595,
        "name": "FENGYUN 1C DEB",
        "group": "fengyun-1c-debris",
        "lat": -38.38395115480253,
        "lon": -143.85106854568494,
        "alt_km": 642.618084215932,
        "timestamp": "2025-12-24T07:45:06.489199+00:00",
        "meta_object_name": "FENGYUN 1C DEB",
        "meta_object_id": "1999-025EKP",
        "meta_epoch": "2025-12-23T19:12:19.083168",
        "meta_mean_motion": 14.71564982,
        "meta_eccentricity": 0.00285537,
        "meta_inclination": 99.0458,
        "meta_ra_of_asc_node": 208.3187,
        "meta_arg_of_pericenter": 332.5627,
        "meta_mean_anomaly": 100.7823,
        "meta_ephemeris_type": 0,
        "meta_classification_type": "U",
        "meta_norad_cat_id": 37595,
        "meta_element_set_no": 999,
        "meta_rev_at_epoch": 62768,
        "meta_bstar": 0.0037494781,
        "meta_mean_motion_dot": 0.00023466,
        "meta_mean_motion_ddot": 0,
        "tle_line1": "1 37595U 99025EKP 25357.80022087  .00023466  00000+0  37495-2 0  9993",
        "tle_line2": "2 37595  99.0458 208.3187 0028553 332.5627 100.7823 14.71564982627683"
      },
      "geometry": {
        "type": "Point",
        "coordinates": [
          -143.85106854568494,
          -38.38395115480253
        ]
      }
    }
  ]
}